LANDSAT 9               
1 49260U 21088A   24273.48015792  .00001384  00000+0  31729-3 0  9994
2 49260  98.2226 341.7780 0001407  92.7766 267.3593 14.57093674159883
